<osm version="1" generator="OSMnx"><node id="40528395" timestamp="2017-01-01T00:00:00Z" uid="1" user="osmnx" version="1" changeset="1" lat="45.5177496" lon="-122.6822145"><tag k="highway" v="nan" /></node><node id="40528397" timestamp="2017-01-01T00:00:00Z" uid="1" user="osmnx" version="1" changeset="1" lat="45.5170853" lon="-122.6825743"><tag k="highway" v="nan" /></node><node id="40528400" timestamp="2017-01-01T00:00:00Z" uid="1" user="osmnx" version="1" changeset="1" lat="45.5164091" lon="-122.6829406"><tag k="highway" v="nan" /></node><node id="40528433" timestamp="2017-01-01T00:00:00Z" uid="1" user="osmnx" version="1" changeset="1" lat="45.5209457" lon="-122.6798912"><tag k="highway" v="nan" /></node><node id="40528436" timestamp="2017-01-01T00:00:00Z" uid="1" user="osmnx" version="1" changeset="1" lat="45.5202773" lon="-122.680247"><tag k="highway" v="nan" /></node><node id="40528439" timestamp="2017-01-01T00:00:00Z" uid="1" user="osmnx" version="1" changeset="1" lat="45.5196227" lon="-122.6805925"><tag k="highway" v="nan" /></node><node id="40528446" timestamp="2017-01-01T00:00:00Z" uid="1" user="osmnx" version="1" changeset="1" lat="45.5189311" lon="-122.680967"><tag k="highway" v="nan" /></node><node id="40528452" timestamp="2017-01-01T00:00:00Z" uid="1" user="osmnx" version="1" changeset="1" lat="45.5182728" lon="-122.6813236"><tag k="highway" v="nan" /></node><node id="40528456" timestamp="2017-01-01T00:00:00Z" uid="1" user="osmnx" version="1" changeset="1" lat="45.5176079" lon="-122.6816838"><tag k="highway" v="nan" /></node><node id="40528458" timestamp="2017-01-01T00:00:00Z" uid="1" user="osmnx" version="1" changeset="1" lat="45.5169441" lon="-122.6820433"><tag k="highway" v="stop" /></node><node id="40528461" timestamp="2017-01-01T00:00:00Z" uid="1" user="osmnx" version="1" changeset="1" lat="45.5162714" lon="-122.6824077"><tag k="highway" v="nan" /></node><node id="40531458" timestamp="2017-01-01T00:00:00Z" uid="1" user="osmnx" version="1" changeset="1" lat="45.5207895" lon="-122.6764662"><tag k="highway" v="traffic_signals" /></node><node id="40531459" timestamp="2017-01-01T00:00:00Z" uid="1" user="osmnx" version="1" changeset="1" lat="45.5201247" lon="-122.676825"><tag k="highway" v="traffic_signals" /></node><node id="40531461" timestamp="2017-01-01T00:00:00Z" uid="1" user="osmnx" version="1" changeset="1" lat="45.5194572" lon="-122.6771901"><tag k="highway" v="traffic_signals" /></node><node id="40531464" timestamp="2017-01-01T00:00:00Z" uid="1" user="osmnx" version="1" changeset="1" lat="45.518799" lon="-122.6775492"><tag k="highway" v="traffic_signals" /></node><node id="40531470" timestamp="2017-01-01T00:00:00Z" uid="1" user="osmnx" version="1" changeset="1" lat="45.5181117" lon="-122.677916"><tag k="highway" v="traffic_signals" /></node><node id="40531475" timestamp="2017-01-01T00:00:00Z" uid="1" user="osmnx" version="1" changeset="1" lat="45.5174597" lon="-122.6782737"><tag k="highway" v="traffic_signals" /></node><node id="40531477" timestamp="2017-01-01T00:00:00Z" uid="1" user="osmnx" version="1" changeset="1" lat="45.5167953" lon="-122.6786441"><tag k="highway" v="traffic_signals" /></node><node id="40531478" timestamp="2017-01-01T00:00:00Z" uid="1" user="osmnx" version="1" changeset="1" lat="45.5161303" lon="-122.6790043"><tag k="highway" v="traffic_signals" /></node><node id="40536563" timestamp="2017-01-01T00:00:00Z" uid="1" user="osmnx" version="1" changeset="1" lat="45.5209489" lon="-122.6827717"><tag k="highway" v="traffic_signals" /></node><node id="40536566" timestamp="2017-01-01T00:00:00Z" uid="1" user="osmnx" version="1" changeset="1" lat="45.5203027" lon="-122.6831287"><tag k="highway" v="traffic_signals" /></node><node id="40536568" timestamp="2017-01-01T00:00:00Z" uid="1" user="osmnx" version="1" changeset="1" lat="45.5195964" lon="-122.6835064"><tag k="highway" v="traffic_signals" /></node><node id="40536832" timestamp="2017-01-01T00:00:00Z" uid="1" user="osmnx" version="1" changeset="1" lat="45.5164227" lon="-122.6800905"><tag k="highway" v="traffic_signals" /></node><node id="40536835" timestamp="2017-01-01T00:00:00Z" uid="1" user="osmnx" version="1" changeset="1" lat="45.5166814" lon="-122.6810555"><tag k="highway" v="traffic_signals" /></node><node id="40536840" timestamp="2017-01-01T00:00:00Z" uid="1" user="osmnx" version="1" changeset="1" lat="45.5173443" lon="-122.6835489"><tag k="highway" v="traffic_signals" /></node><node id="40553676" timestamp="2017-01-01T00:00:00Z" uid="1" user="osmnx" version="1" changeset="1" lat="45.5210859" lon="-122.6804147"><tag k="highway" v="nan" /></node><node id="40553677" timestamp="2017-01-01T00:00:00Z" uid="1" user="osmnx" version="1" changeset="1" lat="45.5204191" lon="-122.6807804"><tag k="highway" v="nan" /></node><node id="40553681" timestamp="2017-01-01T00:00:00Z" uid="1" user="osmnx" version="1" changeset="1" lat="45.5197696" lon="-122.6811383"><tag k="highway" v="nan" /></node><node id="40553687" timestamp="2017-01-01T00:00:00Z" uid="1" user="osmnx" version="1" changeset="1" lat="45.519074" lon="-122.6815055"><tag k="highway" v="stop" /></node><node id="40553691" timestamp="2017-01-01T00:00:00Z" uid="1" user="osmnx" version="1" changeset="1" lat="45.5184177" lon="-122.6818647"><tag k="highway" v="nan" /></node><node id="40574150" timestamp="2017-01-01T00:00:00Z" uid="1" user="osmnx" version="1" changeset="1" lat="45.5160087" lon="-122.6814199"><tag k="highway" v="traffic_signals" /></node><node id="40602203" timestamp="2017-01-01T00:00:00Z" uid="1" user="osmnx" version="1" changeset="1" lat="45.5169252" lon="-122.6762678"><tag k="highway" v="traffic_signals" /></node><node id="40602206" timestamp="2017-01-01T00:00:00Z" uid="1" user="osmnx" version="1" changeset="1" lat="45.5171987" lon="-122.6772852"><tag k="highway" v="traffic_signals" /></node><node id="40602211" timestamp="2017-01-01T00:00:00Z" uid="1" user="osmnx" version="1" changeset="1" lat="45.51775" lon="-122.6793673"><tag k="highway" v="traffic_signals" /></node><node id="40602214" timestamp="2017-01-01T00:00:00Z" uid="1" user="osmnx" version="1" changeset="1" lat="45.5180098" lon="-122.6803359"><tag k="highway" v="traffic_signals" /></node><node id="40605626" timestamp="2017-01-01T00:00:00Z" uid="1" user="osmnx" version="1" changeset="1" lat="45.5162571" lon="-122.6766279"><tag k="highway" v="traffic_signals" /></node><node id="40609745" timestamp="2017-01-01T00:00:00Z" uid="1" user="osmnx" version="1" changeset="1" lat="45.5191957" lon="-122.6762066"><tag k="highway" v="traffic_signals" /></node><node id="40609749" timestamp="2017-01-01T00:00:00Z" uid="1" user="osmnx" version="1" changeset="1" lat="45.5197514" lon="-122.6782968"><tag k="highway" v="traffic_signals" /></node><node id="40609752" timestamp="2017-01-01T00:00:00Z" uid="1" user="osmnx" version="1" changeset="1" lat="45.5200089" lon="-122.6792654"><tag k="highway" v="traffic_signals" /></node><node id="40609759" timestamp="2017-01-01T00:00:00Z" uid="1" user="osmnx" version="1" changeset="1" lat="45.5212241" lon="-122.6837987"><tag k="highway" v="traffic_signals" /></node><node id="40616245" timestamp="2017-01-01T00:00:00Z" uid="1" user="osmnx" version="1" changeset="1" lat="45.5210837" lon="-122.6775684"><tag k="highway" v="traffic_signals" /></node><node id="40616248" timestamp="2017-01-01T00:00:00Z" uid="1" user="osmnx" version="1" changeset="1" lat="45.5213435" lon="-122.6785374"><tag k="highway" v="traffic_signals" /></node><node id="40617154" timestamp="2017-01-01T00:00:00Z" uid="1" user="osmnx" version="1" changeset="1" lat="45.5165315" lon="-122.6776456"><tag k="highway" v="traffic_signals" /></node><node id="40617159" timestamp="2017-01-01T00:00:00Z" uid="1" user="osmnx" version="1" changeset="1" lat="45.5170869" lon="-122.6797306"><tag k="highway" v="traffic_signals" /></node><node id="40617162" timestamp="2017-01-01T00:00:00Z" uid="1" user="osmnx" version="1" changeset="1" lat="45.5173445" lon="-122.6806963"><tag k="highway" v="traffic_signals" /></node><node id="40617168" timestamp="2017-01-01T00:00:00Z" uid="1" user="osmnx" version="1" changeset="1" lat="45.5180131" lon="-122.6831922"><tag k="highway" v="traffic_signals" /></node><node id="40638295" timestamp="2017-01-01T00:00:00Z" uid="1" user="osmnx" version="1" changeset="1" lat="45.5204212" lon="-122.6779322"><tag k="highway" v="traffic_signals" /></node><node id="40638297" timestamp="2017-01-01T00:00:00Z" uid="1" user="osmnx" version="1" changeset="1" lat="45.5206801" lon="-122.6788994"><tag k="highway" v="traffic_signals" /></node><node id="40676405" timestamp="2017-01-01T00:00:00Z" uid="1" user="osmnx" version="1" changeset="1" lat="45.5193574" lon="-122.6796145"><tag k="highway" v="traffic_signals" /></node><node id="40676410" timestamp="2017-01-01T00:00:00Z" uid="1" user="osmnx" version="1" changeset="1" lat="45.5186695" lon="-122.679989"><tag k="highway" v="traffic_signals" /></node><node id="40696417" timestamp="2017-01-01T00:00:00Z" uid="1" user="osmnx" version="1" changeset="1" lat="45.5190963" lon="-122.6786411"><tag k="highway" v="traffic_signals" /></node><node id="40696423" timestamp="2017-01-01T00:00:00Z" uid="1" user="osmnx" version="1" changeset="1" lat="45.5184056" lon="-122.6790039"><tag k="highway" v="traffic_signals" /></node><node id="40709299" timestamp="2017-01-01T00:00:00Z" uid="1" user="osmnx" version="1" changeset="1" lat="45.5185389" lon="-122.6765614"><tag k="highway" v="traffic_signals" /></node><node id="40709309" timestamp="2017-01-01T00:00:00Z" uid="1" user="osmnx" version="1" changeset="1" lat="45.5178462" lon="-122.6769355"><tag k="highway" v="traffic_signals" /></node><node id="40714062" timestamp="2017-01-01T00:00:00Z" uid="1" user="osmnx" version="1" changeset="1" lat="45.520028" lon="-122.682107"><tag k="highway" v="traffic_signals" /></node><node id="40714514" timestamp="2017-01-01T00:00:00Z" uid="1" user="osmnx" version="1" changeset="1" lat="45.5193321" lon="-122.6824795"><tag k="highway" v="traffic_signals" /></node><node id="662764987" timestamp="2017-01-01T00:00:00Z" uid="1" user="osmnx" version="1" changeset="1" lat="45.5206764" lon="-122.6817474"><tag k="highway" v="traffic_signals" /></node><node id="662764989" timestamp="2017-01-01T00:00:00Z" uid="1" user="osmnx" version="1" changeset="1" lat="45.5213463" lon="-122.6813872"><tag k="highway" v="traffic_signals" /></node><node id="1387003142" timestamp="2017-01-01T00:00:00Z" uid="1" user="osmnx" version="1" changeset="1" lat="45.5186794" lon="-122.6828308"><tag k="highway" v="traffic_signals" /></node><node id="4026497218" timestamp="2017-01-01T00:00:00Z" uid="1" user="osmnx" version="1" changeset="1" lat="45.5170056" lon="-122.6822745"><tag k="highway" v="nan" /></node><node id="4026497226" timestamp="2017-01-01T00:00:00Z" uid="1" user="osmnx" version="1" changeset="1" lat="45.5170334" lon="-122.6823791"><tag k="highway" v="nan" /></node><way id="0" timestamp="2017-01-01T00:00:00Z" uid="1" user="osmnx" version="1" changeset="1"><nd ref="40528395" /><nd ref="40528397" /><tag k="highway" v="residential" /><tag k="lanes" v="1" /><tag k="maxspeed" v="20 mph" /><tag k="name" v="Southwest Park Avenue" /><tag k="oneway" v="yes" /></way><way id="1" timestamp="2017-01-01T00:00:00Z" uid="1" user="osmnx" version="1" changeset="1"><nd ref="40528395" /><nd ref="40528456" /><tag k="highway" v="tertiary" /><tag k="lanes" v="2" /><tag k="maxspeed" v="20 mph" /><tag k="name" v="Southwest Salmon Street" /><tag k="oneway" v="yes" /></way><way id="2" timestamp="2017-01-01T00:00:00Z" uid="1" user="osmnx" version="1" changeset="1"><nd ref="40528397" /><nd ref="40528400" /><tag k="highway" v="residential" /><tag k="lanes" v="1" /><tag k="maxspeed" v="20 mph" /><tag k="name" v="Southwest Park Avenue" /><tag k="oneway" v="yes" /></way><way id="3" timestamp="2017-01-01T00:00:00Z" uid="1" user="osmnx" version="1" changeset="1"><nd ref="40528397" /><nd ref="40536840" /><tag k="highway" v="residential" /><tag k="lanes" v="2" /><tag k="maxspeed" v="20 mph" /><tag k="name" v="Southwest Main Street" /><tag k="oneway" v="yes" /></way><way id="4" timestamp="2017-01-01T00:00:00Z" uid="1" user="osmnx" version="1" changeset="1"><nd ref="40528400" /><nd ref="40528461" /><tag k="highway" v="residential" /><tag k="lanes" v="nan" /><tag k="maxspeed" v="20 mph" /><tag k="name" v="Southwest Madison Street" /><tag k="oneway" v="yes" /></way><way id="5" timestamp="2017-01-01T00:00:00Z" uid="1" user="osmnx" version="1" changeset="1"><nd ref="40528433" /><nd ref="40553676" /><tag k="highway" v="secondary" /><tag k="lanes" v="2" /><tag k="maxspeed" v="20 mph" /><tag k="name" v="Southwest Washington Street" /><tag k="oneway" v="yes" /></way><way id="6" timestamp="2017-01-01T00:00:00Z" uid="1" user="osmnx" version="1" changeset="1"><nd ref="40528436" /><nd ref="40609752" /><tag k="highway" v="secondary" /><tag k="lanes" v="nan" /><tag k="maxspeed" v="20 mph" /><tag k="name" v="Southwest Alder Street" /><tag k="oneway" v="yes" /></way><way id="7" timestamp="2017-01-01T00:00:00Z" uid="1" user="osmnx" version="1" changeset="1"><nd ref="40528436" /><nd ref="40528433" /><tag k="highway" v="residential" /><tag k="lanes" v="nan" /><tag k="maxspeed" v="20 mph" /><tag k="name" v="Southwest Park Avenue" /><tag k="oneway" v="yes" /></way><way id="8" timestamp="2017-01-01T00:00:00Z" uid="1" user="osmnx" version="1" changeset="1"><nd ref="40528439" /><nd ref="40528436" /><tag k="highway" v="residential" /><tag k="lanes" v="nan" /><tag k="maxspeed" v="20 mph" /><tag k="name" v="Southwest Park Avenue" /><tag k="oneway" v="yes" /></way><way id="9" timestamp="2017-01-01T00:00:00Z" uid="1" user="osmnx" version="1" changeset="1"><nd ref="40528439" /><nd ref="40553681" /><tag k="highway" v="tertiary" /><tag k="lanes" v="nan" /><tag k="maxspeed" v="20 mph" /><tag k="name" v="Southwest Morrison Street" /><tag k="oneway" v="yes" /></way><way id="10" timestamp="2017-01-01T00:00:00Z" uid="1" user="osmnx" version="1" changeset="1"><nd ref="40528446" /><nd ref="40528439" /><tag k="highway" v="residential" /><tag k="lanes" v="nan" /><tag k="maxspeed" v="20 mph" /><tag k="name" v="Southwest Park Avenue" /><tag k="oneway" v="yes" /></way><way id="11" timestamp="2017-01-01T00:00:00Z" uid="1" user="osmnx" version="1" changeset="1"><nd ref="40528446" /><nd ref="40676410" /><tag k="highway" v="tertiary" /><tag k="lanes" v="nan" /><tag k="maxspeed" v="20 mph" /><tag k="name" v="Southwest Yamhill Street" /><tag k="oneway" v="yes" /></way><way id="12" timestamp="2017-01-01T00:00:00Z" uid="1" user="osmnx" version="1" changeset="1"><nd ref="40528452" /><nd ref="40553691" /><tag k="highway" v="tertiary" /><tag k="lanes" v="2" /><tag k="maxspeed" v="20 mph" /><tag k="name" v="Southwest Taylor Street" /><tag k="oneway" v="yes" /></way><way id="13" timestamp="2017-01-01T00:00:00Z" uid="1" user="osmnx" version="1" changeset="1"><nd ref="40528452" /><nd ref="40528446" /><tag k="highway" v="residential" /><tag k="lanes" v="1" /><tag k="maxspeed" v="20 mph" /><tag k="name" v="Southwest Park Avenue" /><tag k="oneway" v="yes" /></way><way id="14" timestamp="2017-01-01T00:00:00Z" uid="1" user="osmnx" version="1" changeset="1"><nd ref="40528456" /><nd ref="40617162" /><tag k="highway" v="tertiary" /><tag k="lanes" v="2" /><tag k="maxspeed" v="20 mph" /><tag k="name" v="Southwest Salmon Street" /><tag k="oneway" v="yes" /></way><way id="15" timestamp="2017-01-01T00:00:00Z" uid="1" user="osmnx" version="1" changeset="1"><nd ref="40528456" /><nd ref="40528452" /><tag k="highway" v="residential" /><tag k="lanes" v="1" /><tag k="maxspeed" v="20 mph" /><tag k="name" v="Southwest Park Avenue" /><tag k="oneway" v="yes" /></way><way id="16" timestamp="2017-01-01T00:00:00Z" uid="1" user="osmnx" version="1" changeset="1"><nd ref="40528458" /><nd ref="4026497218" /><tag k="highway" v="residential" /><tag k="lanes" v="2" /><tag k="maxspeed" v="20 mph" /><tag k="name" v="Southwest Main Street" /><tag k="oneway" v="yes" /></way><way id="17" timestamp="2017-01-01T00:00:00Z" uid="1" user="osmnx" version="1" changeset="1"><nd ref="40528458" /><nd ref="40528456" /><tag k="highway" v="residential" /><tag k="lanes" v="1" /><tag k="maxspeed" v="20 mph" /><tag k="name" v="Southwest Park Avenue" /><tag k="oneway" v="yes" /></way><way id="18" timestamp="2017-01-01T00:00:00Z" uid="1" user="osmnx" version="1" changeset="1"><nd ref="40528461" /><nd ref="40574150" /><tag k="highway" v="residential" /><tag k="lanes" v="nan" /><tag k="maxspeed" v="20 mph" /><tag k="name" v="Southwest Madison Street" /><tag k="oneway" v="yes" /></way><way id="19" timestamp="2017-01-01T00:00:00Z" uid="1" user="osmnx" version="1" changeset="1"><nd ref="40528461" /><nd ref="40528458" /><tag k="highway" v="residential" /><tag k="lanes" v="1" /><tag k="maxspeed" v="20 mph" /><tag k="name" v="Southwest Park Avenue" /><tag k="oneway" v="yes" /></way><way id="20" timestamp="2017-01-01T00:00:00Z" uid="1" user="osmnx" version="1" changeset="1"><nd ref="40531458" /><nd ref="40531459" /><tag k="highway" v="tertiary" /><tag k="lanes" v="2" /><tag k="maxspeed" v="20 mph" /><tag k="name" v="Southwest 5th Avenue" /><tag k="oneway" v="yes" /></way><way id="21" timestamp="2017-01-01T00:00:00Z" uid="1" user="osmnx" version="1" changeset="1"><nd ref="40531459" /><nd ref="40531461" /><tag k="highway" v="tertiary" /><tag k="lanes" v="2" /><tag k="maxspeed" v="20 mph" /><tag k="name" v="Southwest 5th Avenue" /><tag k="oneway" v="yes" /></way><way id="22" timestamp="2017-01-01T00:00:00Z" uid="1" user="osmnx" version="1" changeset="1"><nd ref="40531459" /><nd ref="40638295" /><tag k="highway" v="secondary" /><tag k="lanes" v="2" /><tag k="maxspeed" v="20 mph" /><tag k="name" v="Southwest Washington Street" /><tag k="oneway" v="yes" /></way><way id="23" timestamp="2017-01-01T00:00:00Z" uid="1" user="osmnx" version="1" changeset="1"><nd ref="40531461" /><nd ref="40609745" /><tag k="highway" v="secondary" /><tag k="lanes" v="nan" /><tag k="maxspeed" v="20 mph" /><tag k="name" v="Southwest Alder Street" /><tag k="oneway" v="yes" /></way><way id="24" timestamp="2017-01-01T00:00:00Z" uid="1" user="osmnx" version="1" changeset="1"><nd ref="40531461" /><nd ref="40531464" /><tag k="highway" v="tertiary" /><tag k="lanes" v="2" /><tag k="maxspeed" v="20 mph" /><tag k="name" v="Southwest 5th Avenue" /><tag k="oneway" v="yes" /></way><way id="25" timestamp="2017-01-01T00:00:00Z" uid="1" user="osmnx" version="1" changeset="1"><nd ref="40531464" /><nd ref="40696417" /><tag k="highway" v="tertiary" /><tag k="lanes" v="nan" /><tag k="maxspeed" v="20 mph" /><tag k="name" v="Southwest Morrison Street" /><tag k="oneway" v="yes" /></way><way id="26" timestamp="2017-01-01T00:00:00Z" uid="1" user="osmnx" version="1" changeset="1"><nd ref="40531464" /><nd ref="40531470" /><tag k="highway" v="tertiary" /><tag k="lanes" v="2" /><tag k="maxspeed" v="20 mph" /><tag k="name" v="Southwest 5th Avenue" /><tag k="oneway" v="yes" /></way><way id="27" timestamp="2017-01-01T00:00:00Z" uid="1" user="osmnx" version="1" changeset="1"><nd ref="40531470" /><nd ref="40531475" /><tag k="highway" v="tertiary" /><tag k="lanes" v="2" /><tag k="maxspeed" v="20 mph" /><tag k="name" v="Southwest 5th Avenue" /><tag k="oneway" v="yes" /></way><way id="28" timestamp="2017-01-01T00:00:00Z" uid="1" user="osmnx" version="1" changeset="1"><nd ref="40531470" /><nd ref="40709309" /><tag k="highway" v="tertiary" /><tag k="lanes" v="nan" /><tag k="maxspeed" v="20 mph" /><tag k="name" v="Southwest Yamhill Street" /><tag k="oneway" v="yes" /></way><way id="29" timestamp="2017-01-01T00:00:00Z" uid="1" user="osmnx" version="1" changeset="1"><nd ref="40531475" /><nd ref="40602211" /><tag k="highway" v="tertiary" /><tag k="lanes" v="nan" /><tag k="maxspeed" v="20 mph" /><tag k="name" v="Southwest Taylor Street" /><tag k="oneway" v="yes" /></way><way id="30" timestamp="2017-01-01T00:00:00Z" uid="1" user="osmnx" version="1" changeset="1"><nd ref="40531475" /><nd ref="40531477" /><tag k="highway" v="tertiary" /><tag k="lanes" v="2" /><tag k="maxspeed" v="20 mph" /><tag k="name" v="Southwest 5th Avenue" /><tag k="oneway" v="yes" /></way><way id="31" timestamp="2017-01-01T00:00:00Z" uid="1" user="osmnx" version="1" changeset="1"><nd ref="40531477" /><nd ref="40617154" /><tag k="highway" v="tertiary" /><tag k="lanes" v="2" /><tag k="maxspeed" v="20 mph" /><tag k="name" v="Southwest Salmon Street" /><tag k="oneway" v="yes" /></way><way id="32" timestamp="2017-01-01T00:00:00Z" uid="1" user="osmnx" version="1" changeset="1"><nd ref="40531477" /><nd ref="40531478" /><tag k="highway" v="tertiary" /><tag k="lanes" v="2" /><tag k="maxspeed" v="20 mph" /><tag k="name" v="Southwest 5th Avenue" /><tag k="oneway" v="yes" /></way><way id="33" timestamp="2017-01-01T00:00:00Z" uid="1" user="osmnx" version="1" changeset="1"><nd ref="40531478" /><nd ref="40536832" /><tag k="highway" v="tertiary" /><tag k="lanes" v="2" /><tag k="maxspeed" v="20 mph" /><tag k="name" v="Southwest Main Street" /><tag k="oneway" v="yes" /></way><way id="34" timestamp="2017-01-01T00:00:00Z" uid="1" user="osmnx" version="1" changeset="1"><nd ref="40536563" /><nd ref="662764987" /><tag k="highway" v="secondary" /><tag k="lanes" v="nan" /><tag k="maxspeed" v="20 mph" /><tag k="name" v="Southwest Alder Street" /><tag k="oneway" v="yes" /></way><way id="35" timestamp="2017-01-01T00:00:00Z" uid="1" user="osmnx" version="1" changeset="1"><nd ref="40536563" /><nd ref="40536566" /><tag k="highway" v="tertiary" /><tag k="lanes" v="3" /><tag k="maxspeed" v="20 mph" /><tag k="name" v="Southwest 11th Avenue" /><tag k="oneway" v="yes" /></way><way id="36" timestamp="2017-01-01T00:00:00Z" uid="1" user="osmnx" version="1" changeset="1"><nd ref="40536566" /><nd ref="40536568" /><tag k="highway" v="tertiary" /><tag k="lanes" v="nan" /><tag k="maxspeed" v="20 mph" /><tag k="name" v="Southwest 11th Avenue" /><tag k="oneway" v="yes" /></way><way id="37" timestamp="2017-01-01T00:00:00Z" uid="1" user="osmnx" version="1" changeset="1"><nd ref="40536568" /><nd ref="40714514" /><tag k="highway" v="tertiary" /><tag k="lanes" v="nan" /><tag k="maxspeed" v="20 mph" /><tag k="name" v="Southwest Yamhill Street" /><tag k="oneway" v="yes" /></way><way id="38" timestamp="2017-01-01T00:00:00Z" uid="1" user="osmnx" version="1" changeset="1"><nd ref="40536832" /><nd ref="40617159" /><tag k="highway" v="tertiary" /><tag k="lanes" v="2" /><tag k="maxspeed" v="20 mph" /><tag k="name" v="Southwest 6th Avenue" /><tag k="oneway" v="yes" /></way><way id="39" timestamp="2017-01-01T00:00:00Z" uid="1" user="osmnx" version="1" changeset="1"><nd ref="40536832" /><nd ref="40536835" /><tag k="highway" v="tertiary" /><tag k="lanes" v="2" /><tag k="maxspeed" v="20 mph" /><tag k="name" v="Southwest Main Street" /><tag k="oneway" v="yes" /></way><way id="40" timestamp="2017-01-01T00:00:00Z" uid="1" user="osmnx" version="1" changeset="1"><nd ref="40536835" /><nd ref="40574150" /><tag k="highway" v="primary" /><tag k="lanes" v="3" /><tag k="maxspeed" v="20 mph" /><tag k="name" v="Southwest Broadway" /><tag k="oneway" v="yes" /></way><way id="41" timestamp="2017-01-01T00:00:00Z" uid="1" user="osmnx" version="1" changeset="1"><nd ref="40536835" /><nd ref="40528458" /><tag k="highway" v="residential" /><tag k="lanes" v="2" /><tag k="maxspeed" v="20 mph" /><tag k="name" v="Southwest Main Street" /><tag k="oneway" v="yes" /></way><way id="42" timestamp="2017-01-01T00:00:00Z" uid="1" user="osmnx" version="1" changeset="1"><nd ref="40536840" /><nd ref="40617168" /><tag k="highway" v="tertiary" /><tag k="lanes" v="3" /><tag k="maxspeed" v="20 mph" /><tag k="name" v="Southwest 10th Avenue" /><tag k="oneway" v="yes" /></way><way id="43" timestamp="2017-01-01T00:00:00Z" uid="1" user="osmnx" version="1" changeset="1"><nd ref="40553676" /><nd ref="40553677" /><tag k="highway" v="residential" /><tag k="lanes" v="nan" /><tag k="maxspeed" v="20 mph" /><tag k="name" v="Southwest 9th Avenue" /><tag k="oneway" v="yes" /></way><way id="44" timestamp="2017-01-01T00:00:00Z" uid="1" user="osmnx" version="1" changeset="1"><nd ref="40553676" /><nd ref="662764989" /><tag k="highway" v="secondary" /><tag k="lanes" v="2" /><tag k="maxspeed" v="20 mph" /><tag k="name" v="Southwest Washington Street" /><tag k="oneway" v="yes" /></way><way id="45" timestamp="2017-01-01T00:00:00Z" uid="1" user="osmnx" version="1" changeset="1"><nd ref="40553677" /><nd ref="40528436" /><tag k="highway" v="secondary" /><tag k="lanes" v="nan" /><tag k="maxspeed" v="20 mph" /><tag k="name" v="Southwest Alder Street" /><tag k="oneway" v="yes" /></way><way id="46" timestamp="2017-01-01T00:00:00Z" uid="1" user="osmnx" version="1" changeset="1"><nd ref="40553677" /><nd ref="40553681" /><tag k="highway" v="residential" /><tag k="lanes" v="nan" /><tag k="maxspeed" v="20 mph" /><tag k="name" v="Southwest 9th Avenue" /><tag k="oneway" v="yes" /></way><way id="47" timestamp="2017-01-01T00:00:00Z" uid="1" user="osmnx" version="1" changeset="1"><nd ref="40553681" /><nd ref="40553687" /><tag k="highway" v="residential" /><tag k="lanes" v="nan" /><tag k="maxspeed" v="20 mph" /><tag k="name" v="Southwest 9th Avenue" /><tag k="oneway" v="yes" /></way><way id="48" timestamp="2017-01-01T00:00:00Z" uid="1" user="osmnx" version="1" changeset="1"><nd ref="40553681" /><nd ref="40714062" /><tag k="highway" v="tertiary" /><tag k="lanes" v="nan" /><tag k="maxspeed" v="20 mph" /><tag k="name" v="Southwest Morrison Street" /><tag k="oneway" v="yes" /></way><way id="49" timestamp="2017-01-01T00:00:00Z" uid="1" user="osmnx" version="1" changeset="1"><nd ref="40553687" /><nd ref="40553691" /><tag k="highway" v="residential" /><tag k="lanes" v="nan" /><tag k="maxspeed" v="20 mph" /><tag k="name" v="Southwest 9th Avenue" /><tag k="oneway" v="yes" /></way><way id="50" timestamp="2017-01-01T00:00:00Z" uid="1" user="osmnx" version="1" changeset="1"><nd ref="40553687" /><nd ref="40528446" /><tag k="highway" v="tertiary" /><tag k="lanes" v="nan" /><tag k="maxspeed" v="20 mph" /><tag k="name" v="Southwest Yamhill Street" /><tag k="oneway" v="yes" /></way><way id="51" timestamp="2017-01-01T00:00:00Z" uid="1" user="osmnx" version="1" changeset="1"><nd ref="40553691" /><nd ref="40528395" /><tag k="highway" v="residential" /><tag k="lanes" v="nan" /><tag k="maxspeed" v="20 mph" /><tag k="name" v="Southwest 9th Avenue" /><tag k="oneway" v="yes" /></way><way id="52" timestamp="2017-01-01T00:00:00Z" uid="1" user="osmnx" version="1" changeset="1"><nd ref="40553691" /><nd ref="1387003142" /><tag k="highway" v="tertiary" /><tag k="lanes" v="2" /><tag k="maxspeed" v="20 mph" /><tag k="name" v="Southwest Taylor Street" /><tag k="oneway" v="yes" /></way><way id="53" timestamp="2017-01-01T00:00:00Z" uid="1" user="osmnx" version="1" changeset="1"><nd ref="40602203" /><nd ref="40602206" /><tag k="highway" v="tertiary" /><tag k="lanes" v="nan" /><tag k="maxspeed" v="20 mph" /><tag k="name" v="Southwest Taylor Street" /><tag k="oneway" v="yes" /></way><way id="54" timestamp="2017-01-01T00:00:00Z" uid="1" user="osmnx" version="1" changeset="1"><nd ref="40602203" /><nd ref="40605626" /><tag k="highway" v="secondary" /><tag k="lanes" v="3" /><tag k="maxspeed" v="20 mph" /><tag k="name" v="Southwest 3rd Avenue" /><tag k="oneway" v="yes" /></way><way id="55" timestamp="2017-01-01T00:00:00Z" uid="1" user="osmnx" version="1" changeset="1"><nd ref="40602206" /><nd ref="40531475" /><tag k="highway" v="tertiary" /><tag k="lanes" v="nan" /><tag k="maxspeed" v="20 mph" /><tag k="name" v="Southwest Taylor Street" /><tag k="oneway" v="yes" /></way><way id="56" timestamp="2017-01-01T00:00:00Z" uid="1" user="osmnx" version="1" changeset="1"><nd ref="40602206" /><nd ref="40709309" /><tag k="highway" v="primary" /><tag k="lanes" v="3" /><tag k="maxspeed" v="20 mph" /><tag k="name" v="Southwest 4th Avenue" /><tag k="oneway" v="yes" /></way><way id="57" timestamp="2017-01-01T00:00:00Z" uid="1" user="osmnx" version="1" changeset="1"><nd ref="40602211" /><nd ref="40696423" /><tag k="highway" v="tertiary" /><tag k="lanes" v="2" /><tag k="maxspeed" v="20 mph" /><tag k="name" v="Southwest 6th Avenue" /><tag k="oneway" v="yes" /></way><way id="58" timestamp="2017-01-01T00:00:00Z" uid="1" user="osmnx" version="1" changeset="1"><nd ref="40602211" /><nd ref="40602214" /><tag k="highway" v="tertiary" /><tag k="lanes" v="nan" /><tag k="maxspeed" v="20 mph" /><tag k="name" v="Southwest Taylor Street" /><tag k="oneway" v="yes" /></way><way id="59" timestamp="2017-01-01T00:00:00Z" uid="1" user="osmnx" version="1" changeset="1"><nd ref="40602214" /><nd ref="40528452" /><tag k="highway" v="tertiary" /><tag k="lanes" v="2" /><tag k="maxspeed" v="20 mph" /><tag k="name" v="Southwest Taylor Street" /><tag k="oneway" v="yes" /></way><way id="60" timestamp="2017-01-01T00:00:00Z" uid="1" user="osmnx" version="1" changeset="1"><nd ref="40602214" /><nd ref="40617162" /><tag k="highway" v="primary" /><tag k="lanes" v="3" /><tag k="maxspeed" v="20 mph" /><tag k="name" v="Southwest Broadway" /><tag k="oneway" v="yes" /></way><way id="61" timestamp="2017-01-01T00:00:00Z" uid="1" user="osmnx" version="1" changeset="1"><nd ref="40609749" /><nd ref="40531461" /><tag k="highway" v="secondary" /><tag k="lanes" v="nan" /><tag k="maxspeed" v="20 mph" /><tag k="name" v="Southwest Alder Street" /><tag k="oneway" v="yes" /></way><way id="62" timestamp="2017-01-01T00:00:00Z" uid="1" user="osmnx" version="1" changeset="1"><nd ref="40609749" /><nd ref="40638295" /><tag k="highway" v="tertiary" /><tag k="lanes" v="2" /><tag k="maxspeed" v="20 mph" /><tag k="name" v="Southwest 6th Avenue" /><tag k="oneway" v="yes" /></way><way id="63" timestamp="2017-01-01T00:00:00Z" uid="1" user="osmnx" version="1" changeset="1"><nd ref="40609752" /><nd ref="40609749" /><tag k="highway" v="secondary" /><tag k="lanes" v="nan" /><tag k="maxspeed" v="20 mph" /><tag k="name" v="Southwest Alder Street" /><tag k="oneway" v="yes" /></way><way id="64" timestamp="2017-01-01T00:00:00Z" uid="1" user="osmnx" version="1" changeset="1"><nd ref="40609752" /><nd ref="40676405" /><tag k="highway" v="primary" /><tag k="lanes" v="3" /><tag k="maxspeed" v="20 mph" /><tag k="name" v="Southwest Broadway" /><tag k="oneway" v="yes" /></way><way id="65" timestamp="2017-01-01T00:00:00Z" uid="1" user="osmnx" version="1" changeset="1"><nd ref="40609759" /><nd ref="40536563" /><tag k="highway" v="secondary" /><tag k="lanes" v="nan" /><tag k="maxspeed" v="20 mph" /><tag k="name" v="Southwest Alder Street" /><tag k="oneway" v="yes" /></way><way id="66" timestamp="2017-01-01T00:00:00Z" uid="1" user="osmnx" version="1" changeset="1"><nd ref="40616245" /><nd ref="40531458" /><tag k="highway" v="tertiary" /><tag k="lanes" v="1" /><tag k="maxspeed" v="20 mph" /><tag k="name" v="Southwest Harvey Milk Street" /><tag k="oneway" v="yes" /></way><way id="67" timestamp="2017-01-01T00:00:00Z" uid="1" user="osmnx" version="1" changeset="1"><nd ref="40616248" /><nd ref="40638297" /><tag k="highway" v="primary" /><tag k="lanes" v="3" /><tag k="maxspeed" v="20 mph" /><tag k="name" v="Southwest Broadway" /><tag k="oneway" v="yes" /></way><way id="68" timestamp="2017-01-01T00:00:00Z" uid="1" user="osmnx" version="1" changeset="1"><nd ref="40616248" /><nd ref="40616245" /><tag k="highway" v="tertiary" /><tag k="lanes" v="nan" /><tag k="maxspeed" v="20 mph" /><tag k="name" v="Southwest Harvey Milk Street" /><tag k="oneway" v="yes" /></way><way id="69" timestamp="2017-01-01T00:00:00Z" uid="1" user="osmnx" version="1" changeset="1"><nd ref="40617154" /><nd ref="40605626" /><tag k="highway" v="tertiary" /><tag k="lanes" v="2" /><tag k="maxspeed" v="20 mph" /><tag k="name" v="Southwest Salmon Street" /><tag k="oneway" v="yes" /></way><way id="70" timestamp="2017-01-01T00:00:00Z" uid="1" user="osmnx" version="1" changeset="1"><nd ref="40617154" /><nd ref="40602206" /><tag k="highway" v="primary" /><tag k="lanes" v="3" /><tag k="maxspeed" v="20 mph" /><tag k="name" v="Southwest 4th Avenue" /><tag k="oneway" v="yes" /></way><way id="71" timestamp="2017-01-01T00:00:00Z" uid="1" user="osmnx" version="1" changeset="1"><nd ref="40617159" /><nd ref="40531477" /><tag k="highway" v="tertiary" /><tag k="lanes" v="2" /><tag k="maxspeed" v="20 mph" /><tag k="name" v="Southwest Salmon Street" /><tag k="oneway" v="yes" /></way><way id="72" timestamp="2017-01-01T00:00:00Z" uid="1" user="osmnx" version="1" changeset="1"><nd ref="40617159" /><nd ref="40602211" /><tag k="highway" v="tertiary" /><tag k="lanes" v="2" /><tag k="maxspeed" v="20 mph" /><tag k="name" v="Southwest 6th Avenue" /><tag k="oneway" v="yes" /></way><way id="73" timestamp="2017-01-01T00:00:00Z" uid="1" user="osmnx" version="1" changeset="1"><nd ref="40617162" /><nd ref="40617159" /><tag k="highway" v="tertiary" /><tag k="lanes" v="2" /><tag k="maxspeed" v="20 mph" /><tag k="name" v="Southwest Salmon Street" /><tag k="oneway" v="yes" /></way><way id="74" timestamp="2017-01-01T00:00:00Z" uid="1" user="osmnx" version="1" changeset="1"><nd ref="40617162" /><nd ref="40536835" /><tag k="highway" v="primary" /><tag k="lanes" v="3" /><tag k="maxspeed" v="20 mph" /><tag k="name" v="Southwest Broadway" /><tag k="oneway" v="yes" /></way><way id="75" timestamp="2017-01-01T00:00:00Z" uid="1" user="osmnx" version="1" changeset="1"><nd ref="40617168" /><nd ref="40528395" /><tag k="highway" v="tertiary" /><tag k="lanes" v="2" /><tag k="maxspeed" v="20 mph" /><tag k="name" v="Southwest Salmon Street" /><tag k="oneway" v="yes" /></way><way id="76" timestamp="2017-01-01T00:00:00Z" uid="1" user="osmnx" version="1" changeset="1"><nd ref="40617168" /><nd ref="1387003142" /><tag k="highway" v="tertiary" /><tag k="lanes" v="3" /><tag k="maxspeed" v="20 mph" /><tag k="name" v="Southwest 10th Avenue" /><tag k="oneway" v="yes" /></way><way id="77" timestamp="2017-01-01T00:00:00Z" uid="1" user="osmnx" version="1" changeset="1"><nd ref="40638295" /><nd ref="40616245" /><tag k="highway" v="tertiary" /><tag k="lanes" v="2" /><tag k="maxspeed" v="20 mph" /><tag k="name" v="Southwest 6th Avenue" /><tag k="oneway" v="yes" /></way><way id="78" timestamp="2017-01-01T00:00:00Z" uid="1" user="osmnx" version="1" changeset="1"><nd ref="40638295" /><nd ref="40638297" /><tag k="highway" v="secondary" /><tag k="lanes" v="2" /><tag k="maxspeed" v="20 mph" /><tag k="name" v="Southwest Washington Street" /><tag k="oneway" v="yes" /></way><way id="79" timestamp="2017-01-01T00:00:00Z" uid="1" user="osmnx" version="1" changeset="1"><nd ref="40638297" /><nd ref="40528433" /><tag k="highway" v="secondary" /><tag k="lanes" v="2" /><tag k="maxspeed" v="20 mph" /><tag k="name" v="Southwest Washington Street" /><tag k="oneway" v="yes" /></way><way id="80" timestamp="2017-01-01T00:00:00Z" uid="1" user="osmnx" version="1" changeset="1"><nd ref="40638297" /><nd ref="40609752" /><tag k="highway" v="primary" /><tag k="lanes" v="3" /><tag k="maxspeed" v="20 mph" /><tag k="name" v="Southwest Broadway" /><tag k="oneway" v="yes" /></way><way id="81" timestamp="2017-01-01T00:00:00Z" uid="1" user="osmnx" version="1" changeset="1"><nd ref="40676405" /><nd ref="40676410" /><tag k="highway" v="primary" /><tag k="lanes" v="3" /><tag k="maxspeed" v="20 mph" /><tag k="name" v="Southwest Broadway" /><tag k="oneway" v="yes" /></way><way id="82" timestamp="2017-01-01T00:00:00Z" uid="1" user="osmnx" version="1" changeset="1"><nd ref="40676405" /><nd ref="40528439" /><tag k="highway" v="tertiary" /><tag k="lanes" v="nan" /><tag k="maxspeed" v="20 mph" /><tag k="name" v="Southwest Morrison Street" /><tag k="oneway" v="yes" /></way><way id="83" timestamp="2017-01-01T00:00:00Z" uid="1" user="osmnx" version="1" changeset="1"><nd ref="40676410" /><nd ref="40696423" /><tag k="highway" v="tertiary" /><tag k="lanes" v="nan" /><tag k="maxspeed" v="20 mph" /><tag k="name" v="Southwest Yamhill Street" /><tag k="oneway" v="yes" /></way><way id="84" timestamp="2017-01-01T00:00:00Z" uid="1" user="osmnx" version="1" changeset="1"><nd ref="40676410" /><nd ref="40602214" /><tag k="highway" v="primary" /><tag k="lanes" v="3" /><tag k="maxspeed" v="20 mph" /><tag k="name" v="Southwest Broadway" /><tag k="oneway" v="yes" /></way><way id="85" timestamp="2017-01-01T00:00:00Z" uid="1" user="osmnx" version="1" changeset="1"><nd ref="40696417" /><nd ref="40676405" /><tag k="highway" v="tertiary" /><tag k="lanes" v="nan" /><tag k="maxspeed" v="20 mph" /><tag k="name" v="Southwest Morrison Street" /><tag k="oneway" v="yes" /></way><way id="86" timestamp="2017-01-01T00:00:00Z" uid="1" user="osmnx" version="1" changeset="1"><nd ref="40696417" /><nd ref="40609749" /><tag k="highway" v="tertiary" /><tag k="lanes" v="2" /><tag k="maxspeed" v="20 mph" /><tag k="name" v="Southwest 6th Avenue" /><tag k="oneway" v="yes" /></way><way id="87" timestamp="2017-01-01T00:00:00Z" uid="1" user="osmnx" version="1" changeset="1"><nd ref="40696423" /><nd ref="40696417" /><tag k="highway" v="tertiary" /><tag k="lanes" v="2" /><tag k="maxspeed" v="20 mph" /><tag k="name" v="Southwest 6th Avenue" /><tag k="oneway" v="yes" /></way><way id="88" timestamp="2017-01-01T00:00:00Z" uid="1" user="osmnx" version="1" changeset="1"><nd ref="40696423" /><nd ref="40531470" /><tag k="highway" v="tertiary" /><tag k="lanes" v="nan" /><tag k="maxspeed" v="20 mph" /><tag k="name" v="Southwest Yamhill Street" /><tag k="oneway" v="yes" /></way><way id="89" timestamp="2017-01-01T00:00:00Z" uid="1" user="osmnx" version="1" changeset="1"><nd ref="40709299" /><nd ref="40531464" /><tag k="highway" v="tertiary" /><tag k="lanes" v="nan" /><tag k="maxspeed" v="20 mph" /><tag k="name" v="Southwest Morrison Street" /><tag k="oneway" v="yes" /></way><way id="90" timestamp="2017-01-01T00:00:00Z" uid="1" user="osmnx" version="1" changeset="1"><nd ref="40709299" /><nd ref="40609745" /><tag k="highway" v="primary" /><tag k="lanes" v="3" /><tag k="maxspeed" v="20 mph" /><tag k="name" v="Southwest 4th Avenue" /><tag k="oneway" v="yes" /></way><way id="91" timestamp="2017-01-01T00:00:00Z" uid="1" user="osmnx" version="1" changeset="1"><nd ref="40709309" /><nd ref="40709299" /><tag k="highway" v="primary" /><tag k="lanes" v="3" /><tag k="maxspeed" v="20 mph" /><tag k="name" v="Southwest 4th Avenue" /><tag k="oneway" v="yes" /></way><way id="92" timestamp="2017-01-01T00:00:00Z" uid="1" user="osmnx" version="1" changeset="1"><nd ref="40714062" /><nd ref="662764987" /><tag k="highway" v="tertiary" /><tag k="lanes" v="3" /><tag k="maxspeed" v="20 mph" /><tag k="name" v="Southwest 10th Avenue" /><tag k="oneway" v="yes" /></way><way id="93" timestamp="2017-01-01T00:00:00Z" uid="1" user="osmnx" version="1" changeset="1"><nd ref="40714062" /><nd ref="40536566" /><tag k="highway" v="tertiary" /><tag k="lanes" v="nan" /><tag k="maxspeed" v="20 mph" /><tag k="name" v="Southwest Morrison Street" /><tag k="oneway" v="yes" /></way><way id="94" timestamp="2017-01-01T00:00:00Z" uid="1" user="osmnx" version="1" changeset="1"><nd ref="40714514" /><nd ref="40714062" /><tag k="highway" v="tertiary" /><tag k="lanes" v="3" /><tag k="maxspeed" v="20 mph" /><tag k="name" v="Southwest 10th Avenue" /><tag k="oneway" v="yes" /></way><way id="95" timestamp="2017-01-01T00:00:00Z" uid="1" user="osmnx" version="1" changeset="1"><nd ref="40714514" /><nd ref="40553687" /><tag k="highway" v="tertiary" /><tag k="lanes" v="nan" /><tag k="maxspeed" v="20 mph" /><tag k="name" v="Southwest Yamhill Street" /><tag k="oneway" v="yes" /></way><way id="96" timestamp="2017-01-01T00:00:00Z" uid="1" user="osmnx" version="1" changeset="1"><nd ref="662764987" /><nd ref="40553677" /><tag k="highway" v="secondary" /><tag k="lanes" v="nan" /><tag k="maxspeed" v="20 mph" /><tag k="name" v="Southwest Alder Street" /><tag k="oneway" v="yes" /></way><way id="97" timestamp="2017-01-01T00:00:00Z" uid="1" user="osmnx" version="1" changeset="1"><nd ref="662764987" /><nd ref="662764989" /><tag k="highway" v="tertiary" /><tag k="lanes" v="3" /><tag k="maxspeed" v="20 mph" /><tag k="name" v="Southwest 10th Avenue" /><tag k="oneway" v="yes" /></way><way id="98" timestamp="2017-01-01T00:00:00Z" uid="1" user="osmnx" version="1" changeset="1"><nd ref="1387003142" /><nd ref="40714514" /><tag k="highway" v="tertiary" /><tag k="lanes" v="3" /><tag k="maxspeed" v="20 mph" /><tag k="name" v="Southwest 10th Avenue" /><tag k="oneway" v="yes" /></way><way id="99" timestamp="2017-01-01T00:00:00Z" uid="1" user="osmnx" version="1" changeset="1"><nd ref="4026497218" /><nd ref="4026497226" /><tag k="highway" v="residential" /><tag k="lanes" v="1" /><tag k="maxspeed" v="20 mph" /><tag k="name" v="Southwest Main Street" /><tag k="oneway" v="yes" /></way><way id="100" timestamp="2017-01-01T00:00:00Z" uid="1" user="osmnx" version="1" changeset="1"><nd ref="4026497218" /><nd ref="4026497226" /><tag k="highway" v="residential" /><tag k="lanes" v="1" /><tag k="maxspeed" v="20 mph" /><tag k="name" v="Southwest Main Street" /><tag k="oneway" v="yes" /></way><way id="101" timestamp="2017-01-01T00:00:00Z" uid="1" user="osmnx" version="1" changeset="1"><nd ref="4026497226" /><nd ref="40528397" /><tag k="highway" v="residential" /><tag k="lanes" v="2" /><tag k="maxspeed" v="20 mph" /><tag k="name" v="Southwest Main Street" /><tag k="oneway" v="yes" /></way></osm>